# Made by eph2tle, compiled Jan  5 2024 10:09:35
# Run at Mon Jan  8 09:18:38 2024
#
#    The following TLEs (Two-Line Elements) were generated by fitting
# a numerically-integrated ephemeris,  based on the orbit given below,
# to the SDP4/SGP4 models.  Each TLE is good for the interval between
# its epoch and the epoch of the subsequent TLE (usually one day).
# The maximum deviation between the numerically integrated ephemerides
# and the TLE-based ephemeris, in kilometers,  is given for each TLE
# as the "worst residual".
#
#    This fitting is done using the 'eph2tle' code packaged with Find_Orb.
# The code has details on how the TLEs were computed :
#
#    https://github.com/Bill-Gray/find_orb/eph2tle.cpp
#
#    Be warned:  the error given is that between the numerically
# integrated ephems and the TLE model.  There will usually be at
# least some additional difference between the ephems and the actual
# motion of the satellite,  especially if the ephemerides are based
# on a short arc.  If the following orbital elements say something
# like "[based on] 10 observations 2015 Jan. 1-13",  and the TLEs
# are for 2015 May,  the extrapolation may be tenuous at best.  If
# your application requires a specific level of accuracy,  you may
# want to contact me;  I can give you some idea as to the fit of the
# underlying data (and possibly TLEs based on newer data).
#
#   You can usually find the underlying observational data,  and the
# fitted orbit,  residuals,  ephemerides,  and sometimes some comments
# about the object,  among the pages listed at
#
#    https://www.projectpluto.com/pluto/mpecs/pseudo.htm
#
#    Also,  if you use a TLE outside the "correct" time range (between
# its MJD and that of the next TLE),  all bets are off.  I've carefully
# computed and minimized the worst error over the "correct" time frame,
# but the ephemeris may (or may not) diverge wildly outside of it.
#
# Ephem range: 60317.500000 60331.500000 1.000000
# Created from Horizons data by 'jpl2mpc', ver Jan  8 2024, at Mon Jan  8 14:18:34 2024 UTC
# API VERSION: 1.2
# API SOURCE: NASA/JPL Horizons API
#
# *******************************************************************************
#  Revised: Jan 06, 2024       Peregrine Mission One / (Moon)                -244
#          https://www.nasaspaceflight.com/2024/01/vulcan-flight-one-preps/
# https://www.astrobotic.com/wp-content/uploads/2021/01/Peregrine-Payload-Users-Guide.pdf
#
#  BACKGROUND
#   Astrobotic's Peregrine lunar lander is scheduled to launch January 8, 2024
#   @ 7:18 UTC from SLC-41 at Cape Canaveral (USA). Launch window is 45 minutes.
#
#   It will be the first commercial lunar mission by a private company (selected
#   through NASA's CLPS initiative) and the inaugural flight of the new Vulcan
#   rocket, intended to replace the Delta IV family. The second stage is a
#   Centaur V, a new redesign.
#
#   After stage separation, one Earth orbit period, and cruise to the Moon, the
#   lunar orbit phase starts. It will consist of a high, medium, and finally a
#   circular 100 km altitude orbit.
#
#   Peregrine will descend/land autonomously February 23, 2024 shortly after local
#   sunrise, at a lunar feature called Sinus Viscositatis (Bay of Stickiness),
#   near the largest dark spot on the near side of the Moon (Gruitheisen Domes)
#   on the northeast border of Oceanus Procellarum (Ocean of Storms). Landing
#   ellipse region is 100 x 100 meters.
#
#   The mission will conduct scientific experiments to better understand the Moon
#   prior to the landing of Artemis program astronauts on Artemis III. Operating
#   span is planned to be about 192 hours from touchdown.
#
#   The lander carries five NASA payloads designed to collect data on possible
#   water molecules underground, on the surface, and in the lunar exosphere.
#   Experiments will also study how solar radiation interacts with the lunar
#   surface. There are a total of 20 payloads.
#
#   A laser retroreflector array will also be placed on the surface. Similar
#   to the reflectors left on the lunar surface by Apollo crews, the eight
#   retro-reflectors will allow for laser ranging and support precise lunar
#   orbit determination.
#
#  MISSION TIMELINE (time since launch)
#   SRB jettison                     : +0:01:50.3
#   Booster/Centaur separation       : +0:05:05.0
#   Centaur main engine start (MES-1): +0:05:14.9
#   Centaur second cut-off (MECO-2)  : +0:47:37.0
#   Peregrine separation             : +0:50:26.0  (490 km alt, inc. 30.03 deg.)
#   Centaur start (MES-3, disposal)  : +1:18:23.9
#   Centaur cut-off (MECO-3)         : +1:18:43.8
#
#  SPACECRAFT (Peregrine)
#   Mass      : 1283 kg
#   Payload   :   90 kg
#   Dimensions: 1.9 x 2.5 meters, box-shaped main body, four landing legs.
#   Power (at 28V, max. 480 W): 1.8 m^2 solar panel
#                               840 Whr lithium-ion batteries
#   Communication: X-band (down), S-band (up) w/med/low gain & WLAN
#
#  PROPULSION
#   - Five TALOS-150 667-N thrusters on bottom of lander
#   - Four sets of three 45-N attitude control thrusters
#   - Attitude knowledge from:
#      Sun and star trackers, inertial measurement, OPAL sensor, Doppler LiDAR
#   - Lander carries 450 kg MON-25 bi-propellant in four tanks
#
#  SCIENCE INSTRUMENTS:
#   - Laser Retro-Reflector Array (LRA)
#   - Linear Energy Transfer Spectrometer (LETS)
#   - Near-Infrared Volatile Spectrometer System (NIRVSS)
#   - Peregrine Ion-Trap Mass Spectrometer (PITMS)
#   - Neutron Spectrometer System (NSS)
#
#  SPACECRAFT TRAJECTORY: Pre-launch reference trajectory
#
#  File name                                        Begins (TDB)     Ends  (TDB)
#  ---------------------------------------------- -----------------  -----------
#  8244_Jan08_DescNode_0Loop_North_T-40_V0.3      2024-Jan-08 08:08  2024-Mar-08
# *******************************************************************************
#
#
# *******************************************************************************
# Ephemeris / API_USER Mon Jan  8 06:18:30 2024 Pasadena, USA      / Horizons
# *******************************************************************************
# Target body name: Peregrine (spacecraft) (-244)   {source: peregrine_DescNode_0Loop}
# Center body name: Earth (399)                     {source: DE441}
# Center-site name: BODY CENTER
# *******************************************************************************
# Start time      : A.D. 2024-Jan-08 12:00:00.0000 TDB
# Stop  time      : A.D. 2024-Jan-22 12:00:00.0000 TDB
# Step-size       : 140 steps
# *******************************************************************************
# Center geodetic : 0.0, 0.0, 0.0                   {E-lon(deg),Lat(deg),Alt(km)}
# Center cylindric: 0.0, 0.0, 0.0                   {E-lon(deg),Dxy(km),Dz(km)}
# Center radii    : 6378.137, 6378.137, 6356.752 km {Equator_a, b, pole_c}
# Output units    : KM-S
# Calendar mode   : Mixed Julian/Gregorian
# Output type     : GEOMETRIC cartesian states
# Output format   : 2 (position and velocity)
# EOP file        : eop.240105.p240329
# EOP coverage    : DATA-BASED 1962-JAN-20 TO 2024-JAN-05. PREDICTS-> 2024-MAR-28
# Reference frame : Ecliptic of J2000.0
# *******************************************************************************
# JDTDB
#    X     Y     Z
#    VX    VY    VZ
# *******************************************************************************
#
# 1 NoradU COSPAR   Epoch.epoch     dn/dt/2  d2n/dt2/6 BSTAR    T El# C
# 2 NoradU Inclina RAAscNode Eccent  ArgPeri MeanAno  MeanMotion Rev# C

# Worst residual: 332.06 km
# MJD 60317.500000 (2024 Jan  8 12:00)
Peregrine = 2024-000A = NORAD 99999
1 99999U 24000A   24008.99919926  .00000000  00000-0  00000-0 0 21993
2 99999 029.6210 026.0142 9500069 256.5056 021.7231 00.08862738    08

# Worst residual: 70.99 km
# MJD 60318.500000 (2024 Jan  9 12:00)
Peregrine = 2024-000A = NORAD 99999
1 99999U 24000A   24009.99919926  .00000000  00000-0  00000-0 0 21994
2 99999 029.5766 026.0081 9494576 256.2219 057.7648 00.09525581    02

# Worst residual: 41.99 km
# MJD 60319.500000 (2024 Jan 10 12:00)
Peregrine = 2024-000A = NORAD 99999
1 99999U 24000A   24010.99919926  .00000000  00000-0  00000-0 0 21996
2 99999 029.5121 025.6988 9486010 256.4725 093.6389 00.09664787    09

# Worst residual: 25.47 km
# MJD 60320.500000 (2024 Jan 11 12:00)
Peregrine = 2024-000A = NORAD 99999
1 99999U 24000A   24011.99919926  .00000000  00000-0  00000-0 0 21997
2 99999 029.4721 025.4359 9483376 256.6627 129.4186 00.09716603    07

# Worst residual: 15.91 km
# MJD 60321.500000 (2024 Jan 12 12:00)
Peregrine = 2024-000A = NORAD 99999
1 99999U 24000A   24012.99919926  .00000000  00000-0  00000-0 0 21998
2 99999 029.4670 025.3555 9491140 256.6909 164.8970 00.09736555    00

# Worst residual: 14.87 km
# MJD 60322.500000 (2024 Jan 13 12:00)
Peregrine = 2024-000A = NORAD 99999
1 99999U 24000A   24013.99919926  .00000000  00000-0  00000-0 0 21999
2 99999 029.4834 025.4408 9504401 256.6375 199.8825 00.09745765    02

# Worst residual: 16.83 km
# MJD 60323.500000 (2024 Jan 14 12:00)
Peregrine = 2024-000A = NORAD 99999
1 99999U 24000A   24014.99919926  .00000000  00000-0  00000-0 0 21990
2 99999 029.4980 025.5417 9513002 256.6313 234.3952 00.09759000    07

# Worst residual: 18.71 km
# MJD 60324.500000 (2024 Jan 15 12:00)
Peregrine = 2024-000A = NORAD 99999
1 99999U 24000A   24015.99919926  .00000000  00000-0  00000-0 0 21991
2 99999 029.4976 025.4734 9509528 256.7414 268.7306 00.09783707    09

# Worst residual: 30.17 km
# MJD 60325.500000 (2024 Jan 16 12:00)
Peregrine = 2024-000A = NORAD 99999
1 99999U 24000A   24016.99919926  .00000000  00000-0  00000-0 0 21992
2 99999 029.4917 025.2086 9495631 256.8900 303.3056 00.09813213    06

# Worst residual: 23.61 km
# MJD 60326.500000 (2024 Jan 17 12:00)
Peregrine = 2024-000A = NORAD 99999
1 99999U 24000A   24017.99919926  .00000000  00000-0  00000-0 0 21993
2 99999 029.4953 024.9646 9483231 256.8912 338.4376 00.09790865    01

# Worst residual: 28.40 km
# MJD 60327.500000 (2024 Jan 18 12:00)
Peregrine = 2024-000A = NORAD 99999
1 99999U 24000A   24018.99919926  .00000000  00000-0  00000-0 0 21994
2 99999 029.5082 024.7641 9488381 257.1319 013.2903 00.09583652    02

# Worst residual: 25.80 km
# MJD 60328.500000 (2024 Jan 19 12:00)
Peregrine = 2024-000A = NORAD 99999
1 99999U 24000A   24019.99919926  .00000000  00000-0  00000-0 0 21995
2 99999 029.5354 024.8074 9498776 256.8717 047.7520 00.09621144    08

# Worst residual: 51.76 km
# MJD 60329.500000 (2024 Jan 20 12:00)
Peregrine = 2024-000A = NORAD 99999
1 99999U 24000A   24020.99919926  .00000000  00000-0  00000-0 0 21997
2 99999 029.6356 025.2047 9518059 256.2814 082.5603 00.09667854    02

# Worst residual: 183.07 km
# MJD 60330.500000 (2024 Jan 21 12:00)
Peregrine = 2024-000A = NORAD 99999
1 99999U 24000A   24021.99919926  .00000000  00000-0  00000-0 0 21998
2 99999 029.9642 026.8799 9581906 254.3205 117.9751 00.09748077    02
Avg worst resid: 62.83 km
Worst residual in entire run: 332.06 km on MJD 60317.5
       1     3     10    30    100   300   1K    3K    10K   km
     0     0     0     8     4     1     1     0     0     0
